STARLINK-2435
1 27843C 21018BJ  21325.15329472  .00003455  00000-0  23147-3 0  3254
2 27843  53.0550 102.5448 0001576  79.9810  48.0806 15.06399621    12
